[{"OBJECT_NAME":"SUPERVIEW NEO-1 04","OBJECT_ID":"2025-040B","EPOCH":"2026-03-06T19:28:03.599328","MEAN_MOTION":15.21660643,"ECCENTRICITY":0.00018105,"INCLINATION":97.3404,"RA_OF_ASC_NODE":182.7609,"ARG_OF_PERICENTER":125.6161,"MEAN_ANOMALY":234.5244,"EPHEMERIS_TYPE":0,"CLASSIFICATION_TYPE":"U","NORAD_CAT_ID":63126,"ELEMENT_SET_NO":999,"REV_AT_EPOCH":5662,"BSTAR":0.00040582804,"MEAN_MOTION_DOT":9.111e-5,"MEAN_MOTION_DDOT":0},{"OBJECT_NAME":"USA 74","OBJECT_ID":"1991-076C","EPOCH":"2026-03-09T09:43:12.293760","MEAN_MOTION":13.60278419,"ECCENTRICITY":0.0885176,"INCLINATION":63.2967,"RA_OF_ASC_NODE":52.2144,"ARG_OF_PERICENTER":71.2929,"MEAN_ANOMALY":298.2018,"EPHEMERIS_TYPE":0,"CLASSIFICATION_TYPE":"U","NORAD_CAT_ID":21799,"ELEMENT_SET_NO":999,"REV_AT_EPOCH":9002,"BSTAR":0.00057492031,"MEAN_MOTION_DOT":7.663e-5,"MEAN_MOTION_DDOT":0}]
